start=new Date('2021-11-27T00:00:00.000Z').valueOf();
sats=[{"FILE":"3224952","LAUNCH_DATE":"2020-08-18","RA_OF_ASC_NODE":"97.5582","MEAN_ELEMENT_THEORY":"SGP4","RCS_SIZE":"LARGE","SITE":"AFETR","TLE_LINE1":"1 46140U 20057Z   21330.71942495 -.00004207  00000-0 -26347-3 0  9999","DECAY_DATE":null,"REV_AT_EPOCH":"7216","OBJECT_ID":"2020-057Z","MEAN_MOTION":"15.06426519","TLE_LINE2":"2 46140  53.0533  97.5582 0001477  79.1886 280.9270 15.06426519 72163","OBJECT_NAME":"STARLINK-1594","EPOCH":"2021-11-26T17:15:58.315680","CLASSIFICATION_TYPE":"U","MEAN_MOTION_DDOT":"0.0000000000000","COUNTRY_CODE":"US","BSTAR":"-0.00026347000000","MEAN_ANOMALY":"280.9270","GP_ID":"190558262","OBJECT_TYPE":"PAYLOAD","MEAN_MOTION_DOT":"-0.00004207","CENTER_NAME":"EARTH","ECCENTRICITY":"0.00014770","EPHEMERIS_TYPE":"0","SEMIMAJOR_AXIS":"6925.267","INCLINATION":"53.0533","NORAD_CAT_ID":"46140","PERIAPSIS":"546.109","PERIOD":"95.590","ELEMENT_SET_NO":"999","APOAPSIS":"548.155","TIME_SYSTEM":"UTC","ARG_OF_PERICENTER":"79.1886","REF_FRAME":"TEME"},{"MEAN_MOTION":"15.06406373","DECAY_DATE":null,"OBJECT_ID":"2020-057AA","REV_AT_EPOCH":"7154","TLE_LINE2":"2 46141  53.0532  97.9549 0001246  93.1309 266.9823 15.06406373 71545","OBJECT_NAME":"STARLINK-1596","MEAN_ELEMENT_THEORY":"SGP4","RCS_SIZE":"LARGE","LAUNCH_DATE":"2020-08-18","FILE":"3224736","RA_OF_ASC_NODE":"97.9549","SITE":"AFETR","TLE_LINE1":"1 46141U 20057AA  21330.63096999 -.00000190  00000-0  61646-5 0  9999","GP_ID":"190532674","MEAN_ANOMALY":"266.9823","EPOCH":"2021-11-26T15:08:35.807136","CLASSIFICATION_TYPE":"U","COUNTRY_CODE":"US","BSTAR":"0.00000616460000","MEAN_MOTION_DDOT":"0.0000000000000","ECCENTRICITY":"0.00012460","EPHEMERIS_TYPE":"0","SEMIMAJOR_AXIS":"6925.329","OBJECT_TYPE":"PAYLOAD","MEAN_MOTION_DOT":"-0.00000190","CENTER_NAME":"EARTH","ARG_OF_PERICENTER":"93.1309","REF_FRAME":"TEME","ELEMENT_SET_NO":"999","APOAPSIS":"548.057","TIME_SYSTEM":"UTC","INCLINATION":"53.0532","NORAD_CAT_ID":"46141","PERIAPSIS":"546.331","PERIOD":"95.592"},{"TLE_LINE2":"2 46142  53.0555 136.9812 0001820  82.6371 277.4825 15.06384270 70356","OBJECT_NAME":"STARLINK-1597","DECAY_DATE":null,"REV_AT_EPOCH":"7035","OBJECT_ID":"2020-057AB","MEAN_MOTION":"15.06384270","TLE_LINE1":"1 46142U 20057AB  21330.84846757  .00000683  00000-0  64764-4 0  9997","SITE":"AFETR","LAUNCH_DATE":"2020-08-18","FILE":"3224952","RA_OF_ASC_NODE":"136.9812","MEAN_ELEMENT_THEORY":"SGP4","RCS_SIZE":"LARGE","GP_ID":"190557266","MEAN_ANOMALY":"277.4825","MEAN_MOTION_DDOT":"0.0000000000000","COUNTRY_CODE":"US","BSTAR":"0.00006476400000","CLASSIFICATION_TYPE":"U","EPOCH":"2021-11-26T20:21:47.598048","SEMIMAJOR_AXIS":"6925.397","ECCENTRICITY":"0.00018200","EPHEMERIS_TYPE":"0","CENTER_NAME":"EARTH","OBJECT_TYPE":"PAYLOAD","MEAN_MOTION_DOT":"0.00000683","ELEMENT_SET_NO":"999","APOAPSIS":"548.522","TIME_SYSTEM":"UTC","ARG_OF_PERICENTER":"82.6371","REF_FRAME":"TEME","PERIOD":"95.593","PERIAPSIS":"546.001","INCLINATION":"53.0555","NORAD_CAT_ID":"46142"},{"CLASSIFICATION_TYPE":"U","EPOCH":"2021-11-26T20:48:48.907872","COUNTRY_CODE":"US","BSTAR":"0.00286030000000","MEAN_MOTION_DDOT":"0.0000000000000","MEAN_ANOMALY":"339.0872","GP_ID":"190558017","MEAN_ELEMENT_THEORY":"SGP4","RCS_SIZE":"LARGE","LAUNCH_DATE":"2020-08-18","FILE":"3224952","RA_OF_ASC_NODE":"105.4474","TLE_LINE1":"1 46143U 20057AC  21330.86723273  .00228379  00000-0  28603-2 0  9991","SITE":"AFETR","MEAN_MOTION":"15.58502485","DECAY_DATE":null,"REV_AT_EPOCH":"7080","OBJECT_ID":"2020-057AC","TLE_LINE2":"2 46143  53.0545 105.4474 0002011  21.0222 339.0872 15.58502485 70800","OBJECT_NAME":"STARLINK-1599","INCLINATION":"53.0545","NORAD_CAT_ID":"46143","PERIOD":"92.396","PERIAPSIS":"390.631","ARG_OF_PERICENTER":"21.0222","REF_FRAME":"TEME","ELEMENT_SET_NO":"999","APOAPSIS":"393.354","TIME_SYSTEM":"UTC","OBJECT_TYPE":"PAYLOAD","MEAN_MOTION_DOT":"0.00228379","CENTER_NAME":"EARTH","ECCENTRICITY":"0.00020110","EPHEMERIS_TYPE":"0","SEMIMAJOR_AXIS":"6770.127"},{"CENTER_NAME":"EARTH","MEAN_MOTION_DOT":"-0.00000789","OBJECT_TYPE":"PAYLOAD","SEMIMAJOR_AXIS":"6925.352","EPHEMERIS_TYPE":"0","ECCENTRICITY":"0.00016410","PERIOD":"95.592","PERIAPSIS":"546.081","NORAD_CAT_ID":"46144","INCLINATION":"53.0541","APOAPSIS":"548.353","TIME_SYSTEM":"UTC","ELEMENT_SET_NO":"999","REF_FRAME":"TEME","ARG_OF_PERICENTER":"86.4111","TLE_LINE1":"1 46144U 20057AD  21330.87978173 -.00000789  00000-0 -34090-4 0  9998","SITE":"AFETR","RA_OF_ASC_NODE":"116.8381","FILE":"3224952","LAUNCH_DATE":"2020-08-18","RCS_SIZE":"LARGE","MEAN_ELEMENT_THEORY":"SGP4","OBJECT_NAME":"STARLINK-1606","TLE_LINE2":"2 46144  53.0541 116.8381 0001641  86.4111 273.7066 15.06398887 58896","OBJECT_ID":"2020-057AD","REV_AT_EPOCH":"5889","DECAY_DATE":null,"MEAN_MOTION":"15.06398887","MEAN_MOTION_DDOT":"0.0000000000000","BSTAR":"-0.00003409000000","COUNTRY_CODE":"US","EPOCH":"2021-11-26T21:06:53.141472","CLASSIFICATION_TYPE":"U","GP_ID":"190557763","MEAN_ANOMALY":"273.7066"},{"NORAD_CAT_ID":"46146","INCLINATION":"53.0524","PERIAPSIS":"546.083","PERIOD":"95.593","APOAPSIS":"548.408","TIME_SYSTEM":"UTC","ELEMENT_SET_NO":"999","REF_FRAME":"TEME","ARG_OF_PERICENTER":"96.9976","MEAN_MOTION_DOT":"0.00000606","OBJECT_TYPE":"PAYLOAD","CENTER_NAME":"EARTH","EPHEMERIS_TYPE":"0","ECCENTRICITY":"0.00016790","SEMIMAJOR_AXIS":"6925.381","CLASSIFICATION_TYPE":"U","EPOCH":"2021-11-26T22:13:15.024576","MEAN_MOTION_DDOT":"0.0000000000000","BSTAR":"0.00005962600000","COUNTRY_CODE":"US","MEAN_ANOMALY":"263.1204","GP_ID":"190558520","RA_OF_ASC_NODE":"136.6320","FILE":"3224952","LAUNCH_DATE":"2020-08-18","RCS_SIZE":"LARGE","MEAN_ELEMENT_THEORY":"SGP4","TLE_LINE1":"1 46146U 20057AF  21330.92586834  .00000606  00000-0  59626-4 0  9993","SITE":"AFETR","REV_AT_EPOCH":"7037","OBJECT_ID":"2020-057AF","DECAY_DATE":null,"MEAN_MOTION":"15.06389526","OBJECT_NAME":"STARLINK-1608","TLE_LINE2":"2 46146  53.0524 136.6320 0001679  96.9976 263.1204 15.06389526 70372"},{"OBJECT_NAME":"STARLINK-1611","TLE_LINE2":"2 46147  53.0521 136.7097 0001850  89.6648 270.4552 15.06387151 71626","OBJECT_ID":"2020-057AG","REV_AT_EPOCH":"7162","DECAY_DATE":null,"MEAN_MOTION":"15.06387151","SITE":"AFETR","TLE_LINE1":"1 46147U 20057AG  21330.90744341  .00000603  00000-0  59380-4 0  9995","RA_OF_ASC_NODE":"136.7097","LAUNCH_DATE":"2020-08-18","FILE":"3224952","RCS_SIZE":"LARGE","MEAN_ELEMENT_THEORY":"SGP4","GP_ID":"190556767","MEAN_ANOMALY":"270.4552","MEAN_MOTION_DDOT":"0.0000000000000","BSTAR":"0.00005938000000","COUNTRY_CODE":"US","CLASSIFICATION_TYPE":"U","EPOCH":"2021-11-26T21:46:43.110624","SEMIMAJOR_AXIS":"6925.388","EPHEMERIS_TYPE":"0","ECCENTRICITY":"0.00018500","CENTER_NAME":"EARTH","MEAN_MOTION_DOT":"0.00000603","OBJECT_TYPE":"PAYLOAD","TIME_SYSTEM":"UTC","APOAPSIS":"548.534","ELEMENT_SET_NO":"999","REF_FRAME":"TEME","ARG_OF_PERICENTER":"89.6648","PERIAPSIS":"545.972","PERIOD":"95.593","NORAD_CAT_ID":"46147","INCLINATION":"53.0521"},{"ELEMENT_SET_NO":"999","TIME_SYSTEM":"UTC","APOAPSIS":"548.350","ARG_OF_PERICENTER":"85.4615","REF_FRAME":"TEME","PERIAPSIS":"546.073","PERIOD":"95.592","INCLINATION":"53.0532","NORAD_CAT_ID":"46148","SEMIMAJOR_AXIS":"6925.346","ECCENTRICITY":"0.00016440","EPHEMERIS_TYPE":"0","CENTER_NAME":"EARTH","OBJECT_TYPE":"PAYLOAD","MEAN_MOTION_DOT":"-0.00000639","MEAN_ANOMALY":"274.6562","GP_ID":"190557518","MEAN_MOTION_DDOT":"0.0000000000000","COUNTRY_CODE":"US","BSTAR":"-0.00002399400000","CLASSIFICATION_TYPE":"U","EPOCH":"2021-11-26T17:08:02.098752","TLE_LINE2":"2 46148  53.0532 117.5699 0001644  85.4615 274.6562 15.06400694 70616","OBJECT_NAME":"STARLINK-1616","DECAY_DATE":null,"OBJECT_ID":"2020-057AH","REV_AT_EPOCH":"7061","MEAN_MOTION":"15.06400694","SITE":"AFETR","TLE_LINE1":"1 46148U 20057AH  21330.71391318 -.00000639  00000-0 -23994-4 0  9990","LAUNCH_DATE":"2020-08-18","FILE":"3224952","RA_OF_ASC_NODE":"117.5699","MEAN_ELEMENT_THEORY":"SGP4","RCS_SIZE":"LARGE"},{"GP_ID":"190558263","MEAN_ANOMALY":"291.0050","CLASSIFICATION_TYPE":"U","EPOCH":"2021-11-26T19:04:48.751680","COUNTRY_CODE":"US","BSTAR":"-0.00000899060000","MEAN_MOTION_DDOT":"0.0000000000000","MEAN_MOTION":"15.06395090","DECAY_DATE":null,"OBJECT_ID":"2020-057AJ","REV_AT_EPOCH":"7190","TLE_LINE2":"2 46149  53.0542 117.2198 0001881  69.1141 291.0050 15.06395090 71906","OBJECT_NAME":"STARLINK-1620","MEAN_ELEMENT_THEORY":"SGP4","RCS_SIZE":"LARGE","LAUNCH_DATE":"2020-08-18","FILE":"3224952","RA_OF_ASC_NODE":"117.2198","TLE_LINE1":"1 46149U 20057AJ  21330.79500870 -.00000416  00000-0 -89906-5 0  9993","SITE":"AFETR","ARG_OF_PERICENTER":"69.1141","REF_FRAME":"TEME","ELEMENT_SET_NO":"999","TIME_SYSTEM":"UTC","APOAPSIS":"548.531","INCLINATION":"53.0542","NORAD_CAT_ID":"46149","PERIAPSIS":"545.926","PERIOD":"95.592","ECCENTRICITY":"0.00018810","EPHEMERIS_TYPE":"0","SEMIMAJOR_AXIS":"6925.364","OBJECT_TYPE":"PAYLOAD","MEAN_MOTION_DOT":"-0.00000416","CENTER_NAME":"EARTH"},{"CLASSIFICATION_TYPE":"U","EPOCH":"2021-11-26T20:32:22.316640","BSTAR":"0.00003658900000","COUNTRY_CODE":"US","MEAN_MOTION_DDOT":"0.0000000000000","GP_ID":"190559020","MEAN_ANOMALY":"260.9219","RCS_SIZE":"LARGE","MEAN_ELEMENT_THEORY":"SGP4","RA_OF_ASC_NODE":"136.9349","FILE":"3224952","LAUNCH_DATE":"2020-08-18","SITE":"AFETR","TLE_LINE1":"1 46150U 20057AK  21330.85581385  .00000264  00000-0  36589-4 0  9999","MEAN_MOTION":"15.06403197","OBJECT_ID":"2020-057AK","REV_AT_EPOCH":"7036","DECAY_DATE":null,"OBJECT_NAME":"STARLINK-1629","TLE_LINE2":"2 46150  53.0546 136.9349 0001511  99.1941 260.9219 15.06403197 70368","NORAD_CAT_ID":"46150","INCLINATION":"53.0546","PERIAPSIS":"546.157","PERIOD":"95.592","REF_FRAME":"TEME","ARG_OF_PERICENTER":"99.1941","TIME_SYSTEM":"UTC","APOAPSIS":"548.250","ELEMENT_SET_NO":"999","MEAN_MOTION_DOT":"0.00000264","OBJECT_TYPE":"PAYLOAD","CENTER_NAME":"EARTH","EPHEMERIS_TYPE":"0","ECCENTRICITY":"0.00015110","SEMIMAJOR_AXIS":"6925.339"}];
